From: horizons@ssd.jpl.nasa.gov (Horizons Ephemeris System)
Subject: [Horizons] SMALL BODY #C(500@10)_T(11P/Tempel-Swift-LINEAR) (1/1)
Date: March 1, 2021 at 1:22:46 PM PST

Automated mail xmit by MAIL_REQUEST, PID= 2301 Mon Mar  1 13:22:46 2021
++++++++++++++++++++++++++++++++ (part 1 of 1)  +++++++++++++++++++++++++++++++
*******************************************************************************
JPL/HORIZONS               11P/Tempel-Swift-LINEAR         2021-Mar-01 13:22:46
Rec #:90000219 (+COV) Soln.date: 2021-Feb-01_11:18:20   # obs: 1152 (2001-2021)

IAU76/J2000 helio. ecliptic osc. elements (au, days, deg., period=Julian yrs):

 EPOCH=  2458778.5 ! 2019-Oct-22.0000000 (TDB)    RMSW= n.a.
  EC= .5774510603585563   QR= 1.389778016286888   TP= 2459179.4876309289
  OM= 238.9931433217067   W= 167.7532603963978    IN= 14.43768052565678
  A= 3.289034442888893    MA= 293.7429008087599   ADIST= 5.188290869490897
  PER= 5.9650054736948    N= .165234766           ANGMOM= .025470185
  DAN= 5.03181            DDN= 1.40145            L= 47.1220185
  B= 3.0316564            MOID= .40328601         TP= 2020-Nov-25.9876309289

Comet physical (GM= km^3/s^2; RAD= km):
  GM= n.a.                RAD= n.a.
  M1=  15.3     M2=  18.6     k1=  19.75  k2=  5.      PHCOF=  .030

COMET comments 
1: soln ref.= JPL#K204/8, data arc: 2001-12-07 to 2021-01-26
2: k1=19.75, k2=5., phase coef.=0.03;
*******************************************************************************


*******************************************************************************
Ephemeris / MAIL_REQUEST Mon Mar  1 13:22:46 2021 Pasadena, USA  / Horizons
*******************************************************************************
Target body name: 11P/Tempel-Swift-LINEAR         {source: JPL#K204/8}
Center body name: Sun (10)                        {source: DE431}
Center-site name: BODY CENTER
*******************************************************************************
Start time      : A.D. 1990-Jan-01 00:00:00.0000 TDB
Stop  time      : A.D. 2020-Dec-31 00:00:00.0000 TDB
Step-size       : 10080 minutes
*******************************************************************************
Center geodetic : 0.00000000,0.00000000,0.0000000 {E-lon(deg),Lat(deg),Alt(km)}
Center cylindric: 0.00000000,0.00000000,0.0000000 {E-lon(deg),Dxy(km),Dz(km)}
Center radii    : 696000.0 x 696000.0 x 696000.0 k{Equator, meridian, pole}    
Small perturbers: Yes                             {source: SB431-N16}
Output units    : AU-D
Output type     : GEOMETRIC cartesian states
Output format   : 6 (LT, range, and range-rate)
Reference frame : Ecliptic of J2000.0
*******************************************************************************
Initial IAU76/J2000 heliocentric ecliptic osculating elements (au, days, deg.):
 EPOCH=  2458778.5 ! 2019-Oct-22.0000000 (TDB)    RMSW= n.a.                  
  EC= .5774510603585563   QR= 1.389778016286888   TP= 2459179.4876309289      
  OM= 238.9931433217067   W= 167.7532603963978    IN= 14.43768052565678       
 Equivalent ICRF heliocentric equatorial cartesian coordinates (au, au/d):
  X= 2.239732445900953E-01  Y=-3.453688980939877E+00  Z=-9.318543801082101E-01
 VX= 6.617600711691408E-03 VY= 4.806745581058752E-03 VZ= 2.872913885411099E-03
Comet physical (GM= km^3/s^2; RAD= km):                                        
  GM= n.a.                RAD= n.a.                                           
  M1=  15.3     M2=  18.6     k1=  19.75  k2=  5.      PHCOF=  .030           
*******************************************************************************
           JDTDB,            Calendar Date (TDB),                     LT,                     RG,                     RR,
**************************************************************************************************************************
$$SOE
2455592.500000000, A.D. 2011-Jan-31 00:00:00.0000,  3.009490973125790E-02,  5.210772090783072E+00,  8.822422885538251E-04,
2455599.500000000, A.D. 2011-Feb-07 00:00:00.0000,  3.012974619348734E-02,  5.216803837239456E+00,  8.411227252835399E-04,
2455606.500000000, A.D. 2011-Feb-14 00:00:00.0000,  3.016292131063818E-02,  5.222547930712465E+00,  8.000553557342369E-04,
2455613.500000000, A.D. 2011-Feb-21 00:00:00.0000,  3.019443714937952E-02,  5.228004729034754E+00,  7.590380556097245E-04,
2455620.500000000, A.D. 2011-Feb-28 00:00:00.0000,  3.022429569380771E-02,  5.233174575741961E+00,  7.180688676820629E-04,
2455627.500000000, A.D. 2011-Mar-07 00:00:00.0000,  3.025249885125175E-02,  5.238057801077861E+00,  6.771459035672350E-04,
2455634.500000000, A.D. 2011-Mar-14 00:00:00.0000,  3.027904844353807E-02,  5.242654720481927E+00,  6.362666229295211E-04,
2455641.500000000, A.D. 2011-Mar-21 00:00:00.0000,  3.030394615788064E-02,  5.246965626086203E+00,  5.954269046539159E-04,
2455648.500000000, A.D. 2011-Mar-28 00:00:00.0000,  3.032719351100266E-02,  5.250990780503160E+00,  5.546230056454877E-04,
2455655.500000000, A.D. 2011-Apr-04 00:00:00.0000,  3.034879191331965E-02,  5.254730427938686E+00,  5.138532935622398E-04,
2455662.500000000, A.D. 2011-Apr-11 00:00:00.0000,  3.036874272151138E-02,  5.258184803294600E+00,  4.731164217029323E-04,
2455669.500000000, A.D. 2011-Apr-18 00:00:00.0000,  3.038704722583126E-02,  5.261354129971347E+00,  4.324104504745759E-04,
2455676.500000000, A.D. 2011-Apr-25 00:00:00.0000,  3.040370662962467E-02,  5.264238616321729E+00,  3.917330691644323E-04,
2455683.500000000, A.D. 2011-May-02 00:00:00.0000,  3.041872203925769E-02,  5.266838453907094E+00,  3.510818152236216E-04,
2455690.500000000, A.D. 2011-May-09 00:00:00.0000,  3.043209446029241E-02,  5.269153816835115E+00,  3.104541759933599E-04,
2455697.500000000, A.D. 2011-May-16 00:00:00.0000,  3.044382479672642E-02,  5.271184861628127E+00,  2.698476494011914E-04,
2455704.500000000, A.D. 2011-May-23 00:00:00.0000,  3.045391385267270E-02,  5.272931727513973E+00,  2.292598077605875E-04,
2455711.500000000, A.D. 2011-May-30 00:00:00.0000,  3.046236233652764E-02,  5.274394537147691E+00,  1.886883420739946E-04,
2455718.500000000, A.D. 2011-Jun-06 00:00:00.0000,  3.046917086275026E-02,  5.275573396919562E+00,  1.481308161248567E-04,
2455725.500000000, A.D. 2011-Jun-13 00:00:00.0000,  3.047433992800960E-02,  5.276468392825156E+00,  1.075836154271672E-04,
2455732.500000000, A.D. 2011-Jun-20 00:00:00.0000,  3.047786985055740E-02,  5.277079579968065E+00,  6.704181622866507E-05,
2455739.500000000, A.D. 2011-Jun-27 00:00:00.0000,  3.047976077135060E-02,  5.277406982754220E+00,  2.650200613738261E-05,
2455746.500000000, A.D. 2011-Jul-04 00:00:00.0000,  3.048001273276551E-02,  5.277450608520853E+00, -1.403762051215486E-05,
2455753.500000000, A.D. 2011-Jul-11 00:00:00.0000,  3.047862570345386E-02,  5.277210451840179E+00, -5.457907485461424E-05,
2455760.500000000, A.D. 2011-Jul-18 00:00:00.0000,  3.047559956065708E-02,  5.276686491457212E+00, -9.512482723014656E-05,
2455767.500000000, A.D. 2011-Jul-25 00:00:00.0000,  3.047093407714635E-02,  5.275878688028497E+00, -1.356775357374172E-04,
2455774.500000000, A.D. 2011-Aug-01 00:00:00.0000,  3.046462891751600E-02,  5.274786983480348E+00, -1.762398746049012E-04,
2455781.500000000, A.D. 2011-Aug-08 00:00:00.0000,  3.045668363945794E-02,  5.273411301229492E+00, -2.168144465516335E-04,
2455788.500000000, A.D. 2011-Aug-15 00:00:00.0000,  3.044709769801840E-02,  5.271751546920104E+00, -2.574037149325366E-04,
2455795.500000000, A.D. 2011-Aug-22 00:00:00.0000,  3.043587045273512E-02,  5.269807609659588E+00, -2.980099292169725E-04,
2455802.500000000, A.D. 2011-Aug-29 00:00:00.0000,  3.042300117691441E-02,  5.267579363624828E+00, -3.386351288926251E-04,
2455809.500000000, A.D. 2011-Sep-05 00:00:00.0000,  3.040848905818697E-02,  5.265066668158439E+00, -3.792816888600584E-04,
2455816.500000000, A.D. 2011-Sep-12 00:00:00.0000,  3.039233315980857E-02,  5.262269361068189E+00, -4.199535231523515E-04,
2455823.500000000, A.D. 2011-Sep-19 00:00:00.0000,  3.037453236908894E-02,  5.259187249697728E+00, -4.606548864212480E-04,
2455830.500000000, A.D. 2011-Sep-26 00:00:00.0000,  3.035508544266323E-02,  5.255820118765104E+00, -5.013878981451497E-04,
2455837.500000000, A.D. 2011-Oct-03 00:00:00.0000,  3.033399107546164E-02,  5.252167742304491E+00, -5.421538522713985E-04,
2455844.500000000, A.D. 2011-Oct-10 00:00:00.0000,  3.031124790244273E-02,  5.248229883966285E+00, -5.829544759010345E-04,
2455851.500000000, A.D. 2011-Oct-17 00:00:00.0000,  3.028685448034802E-02,  5.244006293858029E+00, -6.237918689252607E-04,
2455858.500000000, A.D. 2011-Oct-24 00:00:00.0000,  3.026080927724214E-02,  5.239496706733334E+00, -6.646682927518576E-04,
2455865.500000000, A.D. 2011-Oct-31 00:00:00.0000,  3.023311066841703E-02,  5.234700841282725E+00, -7.055860636636010E-04,
2455872.500000000, A.D. 2011-Nov-07 00:00:00.0000,  3.020375693542136E-02,  5.229618399965569E+00, -7.465474938035603E-04,
2455879.500000000, A.D. 2011-Nov-14 00:00:00.0000,  3.017274626743105E-02,  5.224249069247407E+00, -7.875548284550867E-04,
2455886.500000000, A.D. 2011-Nov-21 00:00:00.0000,  3.014007676545653E-02,  5.218592520328377E+00, -8.286101758733662E-04,
2455893.500000000, A.D. 2011-Nov-28 00:00:00.0000,  3.010574644688428E-02,  5.212648409929595E+00, -8.697156309760663E-04,
2455900.500000000, A.D. 2011-Dec-05 00:00:00.0000,  3.006975323054339E-02,  5.206416377707487E+00, -9.108742182284833E-04,
2455907.500000000, A.D. 2011-Dec-12 00:00:00.0000,  3.003209487606609E-02,  5.199896035754399E+00, -9.520906774473573E-04,
2455914.500000000, A.D. 2011-Dec-19 00:00:00.0000,  2.999276895588566E-02,  5.193086963750182E+00, -9.933689752296684E-04,
2455921.500000000, A.D. 2011-Dec-26 00:00:00.0000,  2.995177292447913E-02,  5.185988720951196E+00, -1.034711202089428E-03,
2455928.500000000, A.D. 2012-Jan-02 00:00:00.0000,  2.990910415826492E-02,  5.178600853098374E+00, -1.076119371993013E-03,
2455935.500000000, A.D. 2012-Jan-09 00:00:00.0000,  2.986475994171176E-02,  5.170922890012050E+00, -1.117596007960076E-03,
